[
    {
        "Altitude(m)": 717760.0306663911,
        "Argument of Periapsis(deg)": 0.0022780242373254137,
        "Eccentricity": 0.0,
        "Inclination(deg)": 45.0,
        "Latitude(deg)": -44.85532106119931,
        "Longitude(deg)": -138.39128170004807,
        "Mean Anomaly(deg)": 264.1248433294962,
        "RAAN(deg)": 59.99784961170835,
        "Satellite Name": "Constellation 1 280",
        "Satellite Number": 280,
        "Semi-Major Axis(m)": 7083131.272910544,
        "Time(s)": 38
    },
    {
        "Altitude(m)": 717762.5480348404,
        "Argument of Periapsis(deg)": 0.002337972243570819,
        "Eccentricity": 0.0,
        "Inclination(deg)": 45.0,
        "Latitude(deg)": -44.86145139145164,
        "Longitude(deg)": -138.31062783314943,
        "Mean Anomaly(deg)": 264.1855444697461,
        "RAAN(deg)": 59.99779302254279,
        "Satellite Name": "Constellation 1 280",
        "Satellite Number": 280,
        "Semi-Major Axis(m)": 7083131.272910544,
        "Time(s)": 39
    },
    {
        "Altitude(m)": 717765.0394404595,
        "Argument of Periapsis(deg)": 0.0023979202498162246,
        "Eccentricity": 0.0,
        "Inclination(deg)": 45.0,
        "Latitude(deg)": -44.867518815955535,
        "Longitude(deg)": -138.22995610588768,
        "Mean Anomaly(deg)": 264.246245609996,
        "RAAN(deg)": 59.99773643337722,
        "Satellite Name": "Constellation 1 280",
        "Satellite Number": 280,
        "Semi-Major Axis(m)": 7083131.272910544,
        "Time(s)": 40
    },
    {
        "Altitude(m)": 717767.5048740233,
        "Argument of Periapsis(deg)": 0.00245786825606163,
        "Eccentricity": 0.0,
        "Inclination(deg)": 45.0,
        "Latitude(deg)": -44.87352330849902,
        "Longitude(deg)": -138.14926669504393,
        "Mean Anomaly(deg)": 264.3069467502459,
        "RAAN(deg)": 59.997679844211646,
        "Satellite Name": "Constellation 1 280",
        "Satellite Number": 280,
        "Semi-Major Axis(m)": 7083131.272910544,
        "Time(s)": 41
    },
    {
        "Altitude(m)": 717769.9443264214,
        "Argument of Periapsis(deg)": 0.002517816262307036,
        "Eccentricity": 0.0,
        "Inclination(deg)": 45.0,
        "Latitude(deg)": -44.879464843128396,
        "Longitude(deg)": -138.0685597777045,
        "Mean Anomaly(deg)": 264.36764789049573,
        "RAAN(deg)": 59.99762325504607,
        "Satellite Name": "Constellation 1 280",
        "Satellite Number": 280,
        "Semi-Major Axis(m)": 7083131.272910544,
        "Time(s)": 42
    },
    {
        "Altitude(m)": 717772.3577886198,
        "Argument of Periapsis(deg)": 0.0025777642685524413,
        "Eccentricity": 0.0,
        "Inclination(deg)": 45.0,
        "Latitude(deg)": -44.88534339414881,
        "Longitude(deg)": -137.98783553125762,
        "Mean Anomaly(deg)": 264.4283490307457,
        "RAAN(deg)": 59.997566665880505,
        "Satellite Name": "Constellation 1 280",
        "Satellite Number": 280,
        "Semi-Major Axis(m)": 7083131.272910544,
        "Time(s)": 43
    },
    {
        "Altitude(m)": 717774.7452516912,
        "Argument of Periapsis(deg)": 0.002637712274797847,
        "Eccentricity": 0.0,
        "Inclination(deg)": 45.0,
        "Latitude(deg)": -44.89115893612444,
        "Longitude(deg)": -137.9070943014888,
        "Mean Anomaly(deg)": 264.4890501709956,
        "RAAN(deg)": 59.997510076714946,
        "Satellite Name": "Constellation 1 280",
        "Satellite Number": 280,
        "Semi-Major Axis(m)": 7083131.272910544,
        "Time(s)": 44
    },
    {
        "Altitude(m)": 717777.1067068013,
        "Argument of Periapsis(deg)": 0.0026976602810432526,
        "Eccentricity": 0.0,
        "Inclination(deg)": 45.0,
        "Latitude(deg)": -44.89691144388007,
        "Longitude(deg)": -137.826335930188,
        "Mean Anomaly(deg)": 264.5497513112455,
        "RAAN(deg)": 59.99745348754937,
        "Satellite Name": "Constellation 1 280",
        "Satellite Number": 280,
        "Semi-Major Axis(m)": 7083131.272910544,
        "Time(s)": 45
    },
    {
        "Altitude(m)": 717779.4421452149,
        "Argument of Periapsis(deg)": 0.0027576082872886585,
        "Eccentricity": 0.0,
        "Inclination(deg)": 45.0,
        "Latitude(deg)": -44.90260089250009,
        "Longitude(deg)": -137.74556076373113,
        "Mean Anomaly(deg)": 264.6104524514953,
        "RAAN(deg)": 59.9973968983838,
        "Satellite Name": "Constellation 1 280",
        "Satellite Number": 280,
        "Semi-Major Axis(m)": 7083131.272910544,
        "Time(s)": 46
    },
    {
        "Altitude(m)": 717781.7515582872,
        "Argument of Periapsis(deg)": 0.0028175562935340644,
        "Eccentricity": 0.0,
        "Inclination(deg)": 45.0,
        "Latitude(deg)": -44.90822725733006,
        "Longitude(deg)": -137.6647689806869,
        "Mean Anomaly(deg)": 264.6711535917452,
        "RAAN(deg)": 59.99734030921823,
        "Satellite Name": "Constellation 1 280",
        "Satellite Number": 280,
        "Semi-Major Axis(m)": 7083131.272910544,
        "Time(s)": 47
    },
    {
        "Altitude(m)": 717784.0349374707,
        "Argument of Periapsis(deg)": 0.00287750429977947,
        "Eccentricity": 0.0,
        "Inclination(deg)": 45.0,
        "Latitude(deg)": -44.91379051397685,
        "Longitude(deg)": -137.5839607599127,
        "Mean Anomaly(deg)": 264.73185473199516,
        "RAAN(deg)": 59.99728372005266,
        "Satellite Name": "Constellation 1 280",
        "Satellite Number": 280,
        "Semi-Major Axis(m)": 7083131.272910544,
        "Time(s)": 48
    },
    {
        "Altitude(m)": 717786.2922743203,
        "Argument of Periapsis(deg)": 0.002937452306024875,
        "Eccentricity": 0.0,
        "Inclination(deg)": 45.0,
        "Latitude(deg)": -44.919290638309285,
        "Longitude(deg)": -137.50313628055116,
        "Mean Anomaly(deg)": 264.79255587224503,
        "RAAN(deg)": 59.99722713088708,
        "Satellite Name": "Constellation 1 280",
        "Satellite Number": 280,
        "Semi-Major Axis(m)": 7083131.272910544,
        "Time(s)": 49
    },
    {
        "Altitude(m)": 717788.523560476,
        "Argument of Periapsis(deg)": 0.0029974003122702807,
        "Eccentricity": 0.0,
        "Inclination(deg)": 45.0,
        "Latitude(deg)": -44.924727606458475,
        "Longitude(deg)": -137.42229572202655,
        "Mean Anomaly(deg)": 264.85325701249496,
        "RAAN(deg)": 59.99717054172151,
        "Satellite Name": "Constellation 1 280",
        "Satellite Number": 280,
        "Semi-Major Axis(m)": 7083131.272910544,
        "Time(s)": 50
    },
    {
        "Altitude(m)": 717790.7287876848,
        "Argument of Periapsis(deg)": 0.0030573483185156866,
        "Eccentricity": 0.0,
        "Inclination(deg)": 45.0,
        "Latitude(deg)": -44.93010139481845,
        "Longitude(deg)": -137.34143926404286,
        "Mean Anomaly(deg)": 264.9139581527449,
        "RAAN(deg)": 59.99711395255596,
        "Satellite Name": "Constellation 1 280",
        "Satellite Number": 280,
        "Semi-Major Axis(m)": 7083131.272910544,
        "Time(s)": 51
    },
    {
        "Altitude(m)": 717792.9079477802,
        "Argument of Periapsis(deg)": 0.003117296324761092,
        "Eccentricity": 0.0,
        "Inclination(deg)": 45.0,
        "Latitude(deg)": -44.9354119800463,
        "Longitude(deg)": -137.26056725467765,
        "Mean Anomaly(deg)": 264.9746592929947,
        "RAAN(deg)": 59.99705736339038,
        "Satellite Name": "Constellation 1 280",
        "Satellite Number": 280,
        "Semi-Major Axis(m)": 7083131.272910544,
        "Time(s)": 52
    },
    {
        "Altitude(m)": 717795.0610326997,
        "Argument of Periapsis(deg)": 0.0031772443310064975,
        "Eccentricity": 0.0,
        "Inclination(deg)": 45.0,
        "Latitude(deg)": -44.94065933906371,
        "Longitude(deg)": -137.17967953798993,
        "Mean Anomaly(deg)": 265.03536043324465,
        "RAAN(deg)": 59.99700077422481,
        "Satellite Name": "Constellation 1 280",
        "Satellite Number": 280,
        "Semi-Major Axis(m)": 7083131.272910544,
        "Time(s)": 53
    },
    {
        "Altitude(m)": 717797.1880344752,
        "Argument of Periapsis(deg)": 0.0032371923372519038,
        "Eccentricity": 0.0,
        "Inclination(deg)": 45.0,
        "Latitude(deg)": -44.945843449055914,
        "Longitude(deg)": -137.0987764626012,
        "Mean Anomaly(deg)": 265.0960615734945,
        "RAAN(deg)": 59.996944185059235,
        "Satellite Name": "Constellation 1 280",
        "Satellite Number": 280,
        "Semi-Major Axis(m)": 7083131.272910544,
        "Time(s)": 54
    },
    {
        "Altitude(m)": 717799.28894523,
        "Argument of Periapsis(deg)": 0.0032971403434973088,
        "Eccentricity": 0.0,
        "Inclination(deg)": 45.0,
        "Latitude(deg)": -44.95096428747314,
        "Longitude(deg)": -137.01785820930306,
        "Mean Anomaly(deg)": 265.15676271374446,
        "RAAN(deg)": 59.996887595893675,
        "Satellite Name": "Constellation 1 280",
        "Satellite Number": 280,
        "Semi-Major Axis(m)": 7083131.272910544,
        "Time(s)": 55
    },
    {
        "Altitude(m)": 717801.3637571903,
        "Argument of Periapsis(deg)": 0.0033570883497427146,
        "Eccentricity": 0.0,
        "Inclination(deg)": 45.0,
        "Latitude(deg)": -44.956021832030885,
        "Longitude(deg)": -136.936924959152,
        "Mean Anomaly(deg)": 265.2174638539944,
        "RAAN(deg)": 59.9968310067281,
        "Satellite Name": "Constellation 1 280",
        "Satellite Number": 280,
        "Semi-Major Axis(m)": 7083131.272910544,
        "Time(s)": 56
    }
]